{
    "links": {
        "self": "http://www.neowsapp.com/rest/v1/neo/3380954?api_key=iIulBulltgU6a56xZRHN4H3l9WmuAYTsLGpBGhQ2"
    },
    "id": "3380954",
    "neo_reference_id": "3380954",
    "name": "(2007 OR9)",
    "designation": "2007 OR9",
    "nasa_jpl_url": "http://ssd.jpl.nasa.gov/sbdb.cgi?sstr=3380954",
    "absolute_magnitude_h": 22.1,
    "estimated_diameter": {
        "kilometers": {
            "estimated_diameter_min": 0.1010543415,
            "estimated_diameter_max": 0.2259643771
        },
        "meters": {
            "estimated_diameter_min": 101.054341542,
            "estimated_diameter_max": 225.9643771094
        },
        "miles": {
            "estimated_diameter_min": 0.0627922373,
            "estimated_diameter_max": 0.140407711
        },
        "feet": {
            "estimated_diameter_min": 331.5431259047,
            "estimated_diameter_max": 741.3529669956
        }
    },
    "is_potentially_hazardous_asteroid": false,
    "close_approach_data": [
        {
            "close_approach_date": "2007-07-19",
            "close_approach_date_full": "2007-Jul-19 11:57",
            "epoch_date_close_approach": 1184846220000,
            "relative_velocity": {
                "kilometers_per_second": "5.8478071981",
                "kilometers_per_hour": "21052.1059129962",
                "miles_per_hour": "13080.9599213281"
            },
            "miss_distance": {
                "astronomical": "0.2585659256",
                "lunar": "100.5821450584",
                "kilometers": "38680911.724338472",
                "miles": "24035204.0182840336"
            },
            "orbiting_body": "Earth"
        }
    ],
    "orbital_data": {
        "orbit_id": "10",
        "orbit_determination_date": "2017-04-06 09:06:15",
        "first_observation_date": "2007-07-23",
        "last_observation_date": "2007-08-20",
        "data_arc_in_days": 28,
        "observations_used": 33,
        "orbit_uncertainty": "7",
        "minimum_orbit_intersection": ".234141",
        "jupiter_tisserand_invariant": "4.256",
        "epoch_osculation": "2459000.5",
        "eccentricity": ".2631638482734635",
        "semi_major_axis": "1.625940564710667",
        "inclination": "11.8180339407663",
        "ascending_node_longitude": "138.3605670054777",
        "orbital_period": "757.2781499416935",
        "perihelion_distance": "1.198051788637479",
        "perihelion_argument": "125.6109154312268",
        "aphelion_distance": "2.053829340783854",
        "perihelion_time": "2458800.863105934103",
        "mean_anomaly": "94.90473463318136",
        "mean_motion": ".4753867519189853",
        "equinox": "J2000",
        "orbit_class": {
            "orbit_class_type": "AMO",
            "orbit_class_description": "Near-Earth asteroid orbits similar to that of 1221 Amor",
            "orbit_class_range": "1.017 AU < q (perihelion) < 1.3 AU"
        }
    },
    "is_sentry_object": false
}